NORAD_CAT_ID,OBJECT_NAME,OBJECT_TYPE,EPOCH,MEAN_MOTION,ECCENTRICITY,INCLINATION,RA_OF_ASC_NODE,ARG_OF_PERICENTER,MEAN_ANOMALY,BSTAR,MEAN_MOTION_DOT,MEAN_MOTION_DDOT,TLE_LINE0,TLE_LINE1,TLE_LINE2,SEMIMAJOR_AXIS,PERIOD,APOGEE,PERIGEE,DECAYED
49142.0,STARLINK-3042,PAYLOAD,2023-04-09 07:29:16,14.98328395,0.0003016,70.0001,60.6506,270.899,89.1823,3.4852e-07,-8.9e-07,0.0,0 STARLINK-3042,1 49142U 21082N   23099.31199561 -.00000089  00000-0  34852-6 0  9997,2 49142  70.0001  60.6506 0003016 270.8990  89.1823 14.98328395 87387,6950.198,96.107,574.159,569.967,0.0
49142.0,STARLINK-3042,PAYLOAD,2023-04-10 07:31:16,14.98337008,0.0002954,70.0004,58.1258,270.4864,89.5957,1.3906e-05,7.3e-07,0.0,0 STARLINK-3042,1 49142U 21082N   23100.31338938  .00000073  00000-0  13906-4 0  9990,2 49142  70.0004  58.1258 0002954 270.4864  89.5957 14.98337008 87532,6950.171,96.107,574.089,569.983,0.0
49142.0,STARLINK-3042,PAYLOAD,2023-04-11 04:21:01,14.98331864,0.0002794,70.0007,55.9387,267.5843,92.4996,0.00010759,1.191e-05,0.0,0 STARLINK-3042,1 49142U 21082N   23101.18126946  .00001191  00000-0  10759-3 0  9994,2 49142  70.0007  55.9387 0002794 267.5843  92.4996 14.98331864 87663,6950.187,96.107,573.994,570.11,0.0
49142.0,STARLINK-3042,PAYLOAD,2023-04-12 04:23:03,14.9832443,0.0002839,70.0006,53.4131,267.8353,92.2481,3.2728e-05,2.97e-06,0.0,0 STARLINK-3042,1 49142U 21082N   23102.18267709  .00000297  00000-0  32728-4 0  9995,2 49142  70.0006  53.4131 0002839 267.8353  92.2481 14.98324430 87816,6950.21,96.107,574.048,570.102,0.0
49142.0,STARLINK-3042,PAYLOAD,2023-04-12 13:59:51,14.9833463,0.0002907,70.0007,52.4034,268.6306,91.452,-0.00010089,-1.297e-05,0.0,0 STARLINK-3042,1 49142U 21082N   23102.58323354 -.00001297  00000-0 -10089-3 0  9996,2 49142  70.0007  52.4034 0002907 268.6306  91.4520 14.98334630 87875,6950.179,96.107,574.064,570.023,0.0
49142.0,STARLINK-3042,PAYLOAD,2023-04-13 06:01:11,14.98333866,0.000275,70.0013,50.7208,267.6147,92.4697,4.0879e-05,3.95e-06,0.0,0 STARLINK-3042,1 49142U 21082N   23103.25083171  .00000395  00000-0  40879-4 0  9998,2 49142  70.0013  50.7208 0002750 267.6147  92.4697 14.98333866 87971,6950.181,96.107,573.957,570.135,0.0
49142.0,STARLINK-3042,PAYLOAD,2023-04-13 14:01:52,14.98328364,0.0002723,70.0008,49.8782,273.4681,86.6166,7.972e-05,8.58e-06,0.0,0 STARLINK-3042,1 49142U 21082N   23103.58463395  .00000858  00000-0  79720-4 0  9995,2 49142  70.0008  49.8782 0002723 273.4681  86.6166 14.98328364 88029,6950.198,96.107,573.955,570.17,0.0
49142.0,STARLINK-3042,PAYLOAD,2023-04-14 06:03:12,14.98333681,0.0002843,70.0012,48.1941,267.5089,92.5745,0.00017765,2.028e-05,0.0,0 STARLINK-3042,1 49142U 21082N   23104.25222759  .00002028  00000-0  17765-3 0  9998,2 49142  70.0012  48.1941 0002843 267.5089  92.5745 14.98333681 88120,6950.182,96.107,574.022,570.071,0.0
49142.0,STARLINK-3042,PAYLOAD,2023-04-14 23:40:41,14.98327731,0.0002683,70.0025,46.3437,269.6804,90.4048,2.5794e-06,-6.2e-07,0.0,0 STARLINK-3042,1 49142U 21082N   23104.98659617 -.00000062  00000-0  25794-5 0  9995,2 49142  70.0025  46.3437 0002683 269.6804  90.4048 14.98327731 88238,6950.2,96.107,573.93,570.2,0.0
49142.0,STARLINK-3042,PAYLOAD,2023-04-15 06:05:13,14.98335879,0.0002875,70.0014,45.6695,265.6309,94.4522,6.5267e-05,6.86e-06,0.0,0 STARLINK-3042,1 49142U 21082N   23105.25362900  .00000686  00000-0  65267-4 0  9991,2 49142  70.0014  45.6695 0002875 265.6309  94.4522 14.98335879 88270,6950.175,96.107,574.038,570.042,0.0
49142.0,STARLINK-3042,PAYLOAD,2023-04-15 22:06:34,14.98329683,0.0002886,70.0016,43.9862,265.8962,94.1867,1.4844e-05,8.4e-07,0.0,0 STARLINK-3042,1 49142U 21082N   23105.92123332  .00000084  00000-0  14844-4 0  9996,2 49142  70.0016  43.9862 0002886 265.8962  94.1867 14.98329683 88374,6950.194,96.107,574.065,570.053,0.0
49142.0,STARLINK-3042,PAYLOAD,2023-04-16 04:31:06,14.98337652,0.0002819,70.0017,43.3133,261.9007,98.1833,8.4285e-05,9.13e-06,0.0,0 STARLINK-3042,1 49142U 21082N   23106.18826595  .00000913  00000-0  84285-4 0  9993,2 49142  70.0017  43.3133 0002819 261.9007  98.1833 14.98337652 88410,6950.169,96.107,573.993,570.075,0.0
49142.0,STARLINK-3042,PAYLOAD,2023-04-16 06:07:14,14.98342558,0.0002884,70.0017,43.1449,263.6097,96.4734,5.6785e-05,5.85e-06,0.0,0 STARLINK-3042,1 49142U 21082N   23106.25502329  .00000585  00000-0  56785-4 0  9996,2 49142  70.0017  43.1449 0002884 263.6097  96.4734 14.98342558 88421,6950.154,96.106,574.023,570.015,0.0
49142.0,STARLINK-3042,PAYLOAD,2023-04-16 20:32:27,14.98328275,0.0002682,70.0025,41.633,244.5535,115.5347,6.4837e-06,-1.6e-07,0.0,0 STARLINK-3042,1 49142U 21082N   23106.85587301 -.00000016  00000-0  64837-5 0  9993,2 49142  70.0025  41.6330 0002682 244.5535 115.5347 14.98328275 88516,6950.198,96.107,573.927,570.199,0.0
49142.0,STARLINK-3042,PAYLOAD,2023-04-17 06:09:15,14.98330586,0.0002652,70.0028,40.6234,243.544,116.5447,2.5307e-05,2.09e-06,0.0,0 STARLINK-3042,1 49142U 21082N   23107.25643106  .00000209  00000-0  25307-4 0  9995,2 49142  70.0028  40.6234 0002652 243.5440 116.5447 14.98330586 88578,6950.191,96.107,573.899,570.213,0.0
49142.0,STARLINK-3042,PAYLOAD,2023-04-17 20:34:28,14.98332332,0.0002645,70.003,39.1088,237.5679,122.5224,-1.9015e-06,-1.16e-06,0.0,0 STARLINK-3042,1 49142U 21082N   23107.85727074 -.00000116  00000-0 -19015-5 0  9997,2 49142  70.0030  39.1088 0002645 237.5679 122.5224 14.98332332 88661,6950.186,96.107,573.889,570.212,0.0
49142.0,STARLINK-3042,PAYLOAD,2023-04-18 06:11:16,14.98330769,0.0002633,70.0024,38.0956,248.9836,111.1042,7.0301e-05,7.46e-06,0.0,0 STARLINK-3042,1 49142U 21082N   23108.25783019  .00000746  00000-0  70301-4 0  9994,2 49142  70.0024  38.0956 0002633 248.9836 111.1042 14.98330769 88725,6950.191,96.107,573.885,570.226,0.0
49142.0,STARLINK-3042,PAYLOAD,2023-04-18 19:00:21,14.98331128,0.0002829,70.0021,36.7482,250.9843,109.101,2.2004e-05,1.7e-06,0.0,0 STARLINK-3042,1 49142U 21082N   23108.79191076  .00000170  00000-0  22004-4 0  9997,2 49142  70.0021  36.7482 0002829 250.9843 109.1010 14.98331128 88800,6950.189,96.107,574.021,570.088,0.0
49142.0,STARLINK-3042,PAYLOAD,2023-04-19 04:37:09,14.98331207,0.0002779,70.0023,35.7385,249.1055,110.9806,2.557e-05,2.12e-06,0.0,0 STARLINK-3042,1 49142U 21082N   23109.19247066  .00000212  00000-0  25570-4 0  9991,2 49142  70.0023  35.7385 0002779 249.1055 110.9806 14.98331207 88869,6950.189,96.107,573.986,570.123,0.0
49142.0,STARLINK-3042,PAYLOAD,2023-04-20 04:39:09,14.98334094,0.0003026,70.0021,33.2165,265.8866,94.1947,0.00014066,1.586e-05,0.0,0 STARLINK-3042,1 49142U 21082N   23110.19386503  .00001586  00000-0  14066-3 0  9995,2 49142  70.0021  33.2165 0003026 265.8866  94.1947 14.98334094 89011,6950.18,96.107,574.148,569.942,0.0
49142.0,STARLINK-3042,PAYLOAD,2023-04-21 01:28:56,14.98318027,0.0002564,70.0036,31.0289,260.8701,99.2168,-5.0417e-05,-6.94e-06,0.0,0 STARLINK-3042,1 49142U 21082N   23111.06176187 -.00000694  00000-0 -50417-4 0  9999,2 49142  70.0036  31.0289 0002564 260.8701  99.2168 14.98318027 89142,6950.23,96.108,573.877,570.313,0.0
49142.0,STARLINK-3042,PAYLOAD,2023-04-21 04:41:12,14.98322666,0.0002932,70.0016,30.6894,266.3037,93.7787,-6.7683e-05,-9e-06,0.0,0 STARLINK-3042,1 49142U 21082N   23111.19528013 -.00000900  00000-0 -67683-4 0  9995,2 49142  70.0016  30.6894 0002932 266.3037  93.7787 14.98322666 89161,6950.216,96.107,574.118,570.043,0.0
49142.0,STARLINK-3042,PAYLOAD,2023-04-21 17:30:16,14.98332918,0.0003252,70.0008,29.343,269.4322,90.6465,1.566e-05,9.4e-07,0.0,0 STARLINK-3042,1 49142U 21082N   23111.72935220  .00000094  00000-0  15660-4 0  9996,2 49142  70.0008  29.3430 0003252 269.4322  90.6465 14.98332918 89249,6950.184,96.107,574.309,569.789,0.0
49142.0,STARLINK-3042,PAYLOAD,2023-04-22 04:43:11,14.98347273,0.0003016,70.0013,28.1645,269.3636,90.7178,0.0002276,2.625e-05,0.0,0 STARLINK-3042,1 49142U 21082N   23112.19665570  .00002625  00000-0  22760-3 0  9996,2 49142  70.0013  28.1645 0003016 269.3636  90.7178 14.98347273 89315,6950.139,96.106,574.101,569.908,0.0
49142.0,STARLINK-3042,PAYLOAD,2023-04-23 04:45:13,14.98318411,0.0002885,70.003,25.642,265.685,94.398,0.00034703,4.049e-05,0.0,0 STARLINK-3042,1 49142U 21082N   23113.19806993  .00004049  00000-0  34703-3 0  9995,2 49142  70.0030  25.6420 0002885 265.6850  94.3980 14.98318411 89466,6950.229,96.108,574.099,570.089,0.0
49142.0,STARLINK-3042,PAYLOAD,2023-04-24 04:47:12,14.98350447,0.0003326,70.0009,23.113,262.9906,97.0875,-5.447e-05,-7.43e-06,0.0,0 STARLINK-3042,1 49142U 21082N   23114.19945227 -.00000743  00000-0 -54470-4 0  9993,2 49142  70.0009  23.1130 0003326 262.9906  97.0875 14.98350447 89611,6950.13,96.106,574.306,569.683,0.0
49142.0,STARLINK-3042,PAYLOAD,2023-04-25 03:13:03,14.98354647,0.0002709,70.0021,20.7576,257.4973,102.5883,0.00019785,2.27e-05,0.0,0 STARLINK-3042,1 49142U 21082N   23115.13407127  .00002270  00000-0  19785-3 0  9994,2 49142  70.0021  20.7576 0002709 257.4973 102.5883 14.98354647 89751,6950.117,96.105,573.864,570.099,0.0
49142.0,STARLINK-3042,PAYLOAD,2023-04-26 03:15:10,14.98287605,0.0002793,70.002,18.2372,259.7548,100.3296,-0.00052944,-6.397e-05,0.0,0 STARLINK-3042,1 49142U 21082N   23116.13554130 -.00006397  00000-0 -52944-3 0  9992,2 49142  70.0020  18.2372 0002793 259.7548 100.3296 14.98287605 89902,6950.324,96.11,574.13,570.248,0.0
49142.0,STARLINK-3042,PAYLOAD,2023-04-26 17:40:22,14.98317658,0.0002577,70.0038,16.7234,279.8966,80.1902,-0.00033535,-4.091e-05,0.0,0 STARLINK-3042,1 49142U 21082N   23116.73636616 -.00004091  00000-0 -33535-3 0  9992,2 49142  70.0038  16.7234 0002577 279.8966  80.1902 14.98317658 89998,6950.231,96.108,573.887,570.305,0.0
49142.0,STARLINK-3042,PAYLOAD,2023-04-27 03:17:08,14.98337429,0.0002762,70.0016,15.7094,276.747,83.3375,-0.00015137,-1.899e-05,0.0,0 STARLINK-3042,1 49142U 21082N   23117.13690972 -.00001899  00000-0 -15137-3 0  9993,2 49142  70.0016  15.7094 0002762 276.7470  83.3375 14.98337429 90055,6950.17,96.107,573.955,570.115,0.0
